{"spkid": "50757419", "covariance": {"labels": ["e", "q", "tp", "node", "peri", "i"], "elements": [{"label": "e", "value": ".5207508261992609", "title": "eccentricity", "units": null, "sigma": 3.14034741713007e-07, "name": "e"}, {"value": ".8839005687068274", "title": "perihelion distance", "units": "au", "name": "q", "sigma": 5.82844809381582e-07, "label": "q"}, {"name": "tp", "sigma": 9.46378087277673e-05, "title": "time of perihelion passage", "value": "2458346.150519426579", "units": "TDB", "label": "tp"}, {"label": "node", "name": "om", "sigma": 2.81376690497085e-05, "units": "deg", "title": "longitude of the ascending node", "value": "335.9795878425211"}, {"label": "peri", "units": "deg", "title": "argument of perihelion", "value": "218.9799585673154", "name": "w", "sigma": 6.15820536837821e-05}, {"label": "i", "sigma": 7.83207600582793e-05, "name": "i", "units": "deg", "title": "inclination", "value": "33.14224113054351"}], "data": [["9.86178190027553E-14", "-1.829308544707833E-13", "-1.872322296592098E-11", "2.353859378168233E-12", "-1.639695284370992E-11", "-7.074984221059331E-12"], ["-1.829308544707833E-13", "3.397080718230526E-13", "3.385986193910201E-11", "-4.340455463026443E-12", "3.014759865637435E-11", "1.314393165316586E-11"], ["-1.872322296592098E-11", "3.385986193910201E-11", "8.956314840793473E-9", "-4.810831887570827E-10", "4.705645581373934E-9", "8.547881446315269E-10"], ["2.353859378168233E-12", "-4.340455463026443E-12", "-4.810831887570827E-10", "7.917284195509257E-10", "-1.02288155467398E-9", "-1.813565456865195E-9"], ["-1.639695284370992E-11", "3.014759865637435E-11", "4.705645581373934E-9", "-1.02288155467398E-9", "3.792349335912225E-9", "2.442857633552516E-9"], ["-7.074984221059331E-12", "1.314393165316586E-11", "8.547881446315269E-10", "-1.813565456865195E-9", "2.442857633552516E-9", "6.134141456106559E-9"]], "epoch": "2458371.5"}, "elements": [{"label": "e", "name": "e", "sigma": "3.1555E-7", "title": "eccentricity", "value": ".5215516522455218", "units": null}, {"sigma": "4.1148E-8", "name": "a", "value": "1.843890550811601", "title": "semi-major axis", "units": "au", "label": "a"}, {"units": "au", "title": "perihelion distance", "value": ".8822063874759052", "name": "q", "sigma": "5.8602E-7", "label": "q"}, {"units": "deg", "title": "inclination; angle with respect to x-y ecliptic plane", "value": "33.12577515372138", "sigma": "7.8316E-5", "name": "i", "label": "i"}, {"title": "longitude of the ascending node", "value": "335.9176976232399", "units": "deg", "sigma": "2.8077E-5", "name": "om", "label": "node"}, {"name": "w", "sigma": "6.1281E-5", "units": "deg", "title": "argument of perihelion", "value": "219.0229981017652", "label": "peri"}, {"label": "M", "units": "deg", "title": "mean anomaly", "value": "43.38875756783322", "name": "ma", "sigma": "4.2415E-5"}, {"title": "time of perihelion passage", "value": "2461090.276080926512", "units": "TDB", "sigma": ".00010561", "name": "tp", "label": "tp"}, {"title": "sidereal orbital period", "value": "914.536693161116", "units": "d", "name": "per", "sigma": "3.0613E-5", "label": "period"}, {"label": "n", "units": "deg/d", "title": "mean motion", "value": ".3936419420806968", "sigma": "1.3177E-8", "name": "n"}, {"label": "Q", "sigma": "6.2608E-8", "name": "ad", "units": "au", "title": "aphelion distance", "value": "2.805574714147296"}], "epoch": "2461200.5"}